SatCatId,ObjectName,LaunchYear,OrbitalPeriod,LaunchMass,StatusCode,Inclination,Status,UcsData,OrbitClassEstimated,LaunchSiteCountry,Owner,UseType,Purpose,LaunchVehicleClass,TLE1,TLE2,MeanMotion,Eccentricity,OrbitClass
45400,STARLINK-1213,2020,94.25,227.0,P,53.08,Active,1,LEO,USA,USA,Commercial,Communications,Falcon,1 45400U 20019AS  24132.55606293  .00120426  00000+0  42678-2 0  9996,2 45400  53.0819 216.7944 0001910 301.5728  58.5084 15.28189515229830,15.28189515,0.000191,LEO
45401,STARLINK-1256,2020,95.59,227.0,+,53.06,Active,1,LEO,USA,USA,Commercial,Communications,Falcon,1 45401U 20019AT  24132.70933549  .00082397  00000+0  54654-2 0  9992,2 45401  53.0539 250.8061 0001325  78.3096 281.8041 15.06541532229422,15.06541532,0.0001325,LEO
45403,STARLINK-1259,2020,95.59,227.0,+,53.05,Active,1,LEO,USA,USA,Commercial,Communications,Falcon,1 45403U 20019AV  24132.58770915  .00082919  00000+0  55015-2 0  9998,2 45403  53.0545 251.3541 0001418  75.7137 284.4009 15.06528157229409,15.06528157,0.0001418,LEO
45404,STARLINK-1260,2020,95.59,227.0,+,53.05,Active,1,LEO,USA,USA,Commercial,Communications,Falcon,1 45404U 20019AW  24132.73144552 -.00005414  00000+0 -34456-3 0  9992,2 45404  53.0544 250.7066 0001506  86.4114 273.7048 15.06431685229331,15.06431685,0.0001506,LEO
45405,STARLINK-1263,2020,95.59,227.0,+,53.05,Active,1,LEO,USA,USA,Commercial,Communications,Falcon,1 45405U 20019AX  24132.58402385  .00082396  00000+0  54678-2 0  9996,2 45405  53.0537 251.3688 0001402  84.5249 275.5900 15.06524797229316,15.06524797,0.0001402,LEO
45406,STARLINK-1265,2020,95.59,227.0,+,53.05,Active,1,LEO,USA,USA,Commercial,Communications,Falcon,1 45406U 20019AY  24132.59139197  .00082470  00000+0  54748-2 0  9997,2 45406  53.0533 251.3386 0001162 103.2006 256.9113 15.06510293229316,15.06510293,0.0001162,LEO
45407,STARLINK-1275,2020,94.28,227.0,P,53.06,Active,1,LEO,USA,USA,Commercial,Communications,Falcon,1 45407U 20019AZ  24132.91667824  .00040968  00000+0  15062-2 0  9999,2 45407  53.0586 248.2951 0001764  56.6798 288.6788 15.27518943229374,15.27518943,0.0001764,LEO
45408,STARLINK-1278,2020,95.59,227.0,+,53.05,Active,1,LEO,USA,USA,Commercial,Communications,Falcon,1 45408U 20019BA  24131.82198805  .00022997  00000+0  15568-2 0  9990,2 45408  53.0539 284.7890 0001224  83.9738 276.1390 15.06422600228784,15.064226,0.0001224,LEO
45409,STARLINK-1282,2020,95.59,227.0,+,53.05,Active,1,LEO,USA,USA,Commercial,Communications,Falcon,1 45409U 20019BB  24132.74619727  .00015530  00000+0  10569-2 0  9995,2 45409  53.0551 250.6412 0001412  86.6042 273.5109 15.06479174229348,15.06479174,0.0001412,LEO
45411,STARLINK-1293,2020,95.59,227.0,+,53.05,Active,1,LEO,USA,USA,Commercial,Communications,Falcon,1 45411U 20019BD  24132.56189959  .00086719  00000+0  57520-2 0  9992,2 45411  53.0539 251.4669 0001294  99.5273 260.5863 15.06513174229316,15.06513174,0.0001294,LEO
45412,STARLINK-1296,2020,95.59,227.0,+,53.05,Active,1,LEO,USA,USA,Commercial,Communications,Falcon,1 45412U 20019BE  24132.59507852  .00025519  00000+0  17254-2 0  9993,2 45412  53.0545 251.3191 0001444  89.2382 270.8773 15.06409869229316,15.06409869,0.0001444,LEO
45413,STARLINK-1298,2020,95.59,227.0,+,53.05,Active,1,LEO,USA,USA,Commercial,Communications,Falcon,1 45413U 20019BF  24132.75725911 -.00019177  00000+0 -12708-2 0  9994,2 45413  53.0548 250.5910 0002775 130.4538 229.6694 15.06430790229434,15.0643079,0.0002775,LEO
45414,STARLINK-1309,2020,95.59,227.0,+,53.05,Active,1,LEO,USA,USA,Commercial,Communications,Falcon,1 45414U 20019BG  24132.60980199  .00024016  00000+0  16227-2 0  9996,2 45414  53.0571 251.2566 0001582 111.3560 248.7598 15.06468172229322,15.06468172,0.0001582,LEO
45415,STARLINK-1316,2020,95.59,227.0,+,53.05,Active,1,LEO,USA,USA,Commercial,Communications,Falcon,1 45415U 20019BH  24132.56926031  .00003090  00000+0  22597-3 0  9994,2 45415  53.0543 251.4333 0002320 100.5815 259.5436 15.06454546229332,15.06454546,0.000232,LEO
45416,STARLINK-1318,2020,95.59,227.0,+,53.05,Active,1,LEO,USA,USA,Commercial,Communications,Falcon,1 45416U 20019BJ  24132.73515248 -.00010312  00000+0 -67435-3 0  9995,2 45416  53.0551 250.6931 0001966  90.0908 270.0306 15.06399491229340,15.06399491,0.0001966,LEO
45417,STARLINK-1286,2020,95.59,227.0,+,53.05,Active,1,LEO,USA,USA,Commercial,Communications,Falcon,1 45417U 20019BK  24132.67341946  .00032217  00000+0  21685-2 0  9993,2 45417  53.0539 280.9682 0001371  89.5066 270.6080 15.06458083229195,15.06458083,0.0001371,LEO
45419,STARLINK-1308,2020,95.59,227.0,+,53.05,Active,1,LEO,USA,USA,Commercial,Communications,Falcon,1 45419U 20019BM  24131.80722416  .00017209  00000+0  11711-2 0  9997,2 45419  53.0541 284.8562 0001348  86.3889 273.7254 15.06409437228805,15.06409437,0.0001348,LEO
45424,ONEWEB-0066,2020,109.81,148.0,+,87.9,Active,1,LEO,Kazakhstan,UK,Commercial,Communications,Soyuz,1 45424U 20020A   24132.21125428  .00001380  00000+0  38596-2 0  9994,2 45424  87.8985 173.6432 0002002 107.4651 252.6695 13.11375997202162,13.11375997,0.0002002,LEO
45425,ONEWEB-0067,2020,109.8,148.0,+,87.9,Active,1,LEO,Kazakhstan,UK,Commercial,Communications,Soyuz,1 45425U 20020B   24132.85959606  .00001322  00000+0  36927-2 0  9990,2 45425  87.8975 173.4812 0001914  98.2160 261.9186 13.11458763202302,13.11458763,0.0001914,LEO
45426,ONEWEB-0080,2020,109.81,148.0,+,87.9,Active,1,LEO,Kazakhstan,UK,Commercial,Communications,Soyuz,1 45426U 20020C   24132.87042475  .00000665  00000+0  18437-2 0  9995,2 45426  87.8984 173.5157 0002444 103.3574 256.7827 13.11330366202270,13.11330366,0.0002444,LEO
45427,ONEWEB-0090,2020,109.8,148.0,+,87.9,Active,1,LEO,Kazakhstan,UK,Commercial,Communications,Soyuz,1 45427U 20020D   24132.50660714  .00000131  00000+0  33444-3 0  9992,2 45427  87.8988 173.5697 0002134  95.0407 265.0965 13.11420083202195,13.11420083,0.0002134,LEO
45428,ONEWEB-0061,2020,109.8,148.0,+,87.9,Active,1,LEO,Kazakhstan,UK,Commercial,Communications,Soyuz,1 45428U 20020E   24132.84419917 -.00000475  00000+0 -13760-2 0  9998,2 45428  87.8987 173.5028 0002074  97.1598 262.9766 13.11447326202183,13.11447326,0.0002074,LEO
45429,ONEWEB-0081,2020,109.81,148.0,+,87.9,Active,1,LEO,Kazakhstan,UK,Commercial,Communications,Soyuz,1 45429U 20020F   24132.51970077 -.00000589  00000+0 -16999-2 0  9995,2 45429  87.8989 173.5837 0001908 101.8151 258.3191 13.11364982202252,13.11364982,0.0001908,LEO
45430,ONEWEB-0069,2020,109.81,148.0,+,87.9,Active,1,LEO,Kazakhstan,UK,Commercial,Communications,Soyuz,1 45430U 20020G   24132.50988108 -.00000035  00000+0 -13580-3 0  9990,2 45430  87.8985 173.5746 0002159  95.4887 264.6487 13.11407963202190,13.11407963,0.0002159,LEO
45431,ONEWEB-0031,2020,109.81,148.0,+,87.9,Active,1,LEO,Kazakhstan,UK,Commercial,Communications,Soyuz,1 45431U 20020H   24132.55703230 -.00002494  00000+0 -70794-2 0  9997,2 45431  87.8991 173.5711 0002193  88.9012 271.2367 13.11381273202179,13.11381273,0.0002193,LEO
45432,ONEWEB-0027,2020,109.29,148.0,+,87.92,Active,1,LEO,Kazakhstan,UK,Commercial,Communications,Soyuz,1 45432U 20020J   24131.81954071  .00000013  00000+0  71307-7 0  9996,2 45432  87.9173 158.5844 0002334  84.3594 275.7804 13.17650637205307,13.17650637,0.0002334,LEO
45433,ONEWEB-0064,2020,109.8,148.0,+,87.9,Active,1,LEO,Kazakhstan,UK,Commercial,Communications,Soyuz,1 45433U 20020K   24132.17389741 -.00002193  00000+0 -62277-2 0  9997,2 45433  87.8987 173.6578 0002292  93.9297 266.2093 13.11390839202166,13.11390839,0.0002292,LEO
45434,ONEWEB-0018,2020,109.81,148.0,+,87.9,Active,1,LEO,Kazakhstan,UK,Commercial,Communications,Soyuz,1 45434U 20020L   24132.51151603 -.00000132  00000+0 -40879-3 0  9996,2 45434  87.8982 173.5828 0002017  98.0728 262.0629 13.11401366202155,13.11401366,0.0002017,LEO
45435,ONEWEB-0083,2020,109.81,148.0,+,87.9,Active,1,LEO,Kazakhstan,UK,Commercial,Communications,Soyuz,1 45435U 20020M   24132.80557301 -.00000132  00000+0 -40902-3 0  9991,2 45435  87.8990 173.5051 0002086  94.1149 266.0217 13.11280699202233,13.11280699,0.0002086,LEO
45436,ONEWEB-0095,2020,109.81,148.0,+,87.9,Active,1,LEO,Kazakhstan,UK,Commercial,Communications,Soyuz,1 45436U 20020N   24132.11081337 -.00000811  00000+0 -23268-2 0  9996,2 45436  87.8983 173.6783 0001569 118.0195 242.1092 13.11320755202145,13.11320755,0.0001569,LEO
45437,ONEWEB-0092,2020,109.81,148.0,+,87.9,Active,1,LEO,Kazakhstan,UK,Commercial,Communications,Soyuz,1 45437U 20020P   24132.15441858 -.00000413  00000+0 -12004-2 0  9993,2 45437  87.8989 173.6520 0001883  87.1614 272.9730 13.11379015202257,13.11379015,0.0001883,LEO
45438,ONEWEB-0085,2020,109.81,148.0,+,87.9,Active,1,LEO,Kazakhstan,UK,Commercial,Communications,Soyuz,1 45438U 20020Q   24132.87532750  .00000079  00000+0  18700-3 0  9991,2 45438  87.8988 173.5149 0002096  99.0206 261.1159 13.11306373202240,13.11306373,0.0002096,LEO
45439,ONEWEB-0096,2020,109.81,148.0,+,87.9,Active,1,LEO,Kazakhstan,UK,Commercial,Communications,Soyuz,1 45439U 20020R   24132.50196464 -.00007408  00000+0 -20986-1 0  9992,2 45439  87.8980 173.5598 0001924 103.6229 256.5113 13.11317838202186,13.11317838,0.0001924,LEO
45440,ONEWEB-0037,2020,109.81,148.0,+,87.9,Active,1,LEO,Kazakhstan,UK,Commercial,Communications,Soyuz,1 45440U 20020S   24132.86550624  .00000258  00000+0  69248-3 0  9995,2 45440  87.8983 173.4747 0001792  91.9688 268.1645 13.11354140202262,13.1135414,0.0001792,LEO
45441,ONEWEB-0042,2020,109.81,148.0,+,87.9,Active,1,LEO,Kazakhstan,UK,Commercial,Communications,Soyuz,1 45441U 20020T   24132.49201782 -.00005172  00000+0 -14652-1 0  9992,2 45441  87.8981 173.5763 0001807  97.7932 262.3401 13.11348472202181,13.11348472,0.0001807,LEO
45442,ONEWEB-0098,2020,109.81,148.0,+,87.9,Active,1,LEO,Kazakhstan,UK,Commercial,Communications,Soyuz,1 45442U 20020U   24132.10412565 -.00003950  00000+0 -11194-1 0  9994,2 45442  87.8968 173.6649 0001822 106.0512 254.0817 13.11365247202106,13.11365247,0.0001822,LEO
